GLOBALSTAR M063         
1 26081U 00008A   25298.86714225 -.00000079  00000+0  52984-4 0  9994
2 26081  51.9915 127.4050 0004267 191.3326 276.4237 11.86176717173087
GLOBALSTAR M062         
1 26082U 00008B   25298.67202258 -.00000103  00000+0 -30856-4 0  9995
2 26082  51.9848  72.0597 0007353  37.6040  67.1687 12.43475100512856
GLOBALSTAR M060         
1 26083U 00008C   25298.84650081 -.00000099  00000+0 -76953-4 0  9998
2 26083  52.0038  50.0400 0003430  44.2854 103.3663 12.17668901168283
GLOBALSTAR M064         
1 26084U 00008D   25298.83398152 -.00000055  00000+0  39712-3 0  9998
2 26084  52.0024 224.7815 0001507 339.2956  20.7815 11.88537849182631
GLOBALSTAR M065         
1 31571U 07020A   25298.66240310 -.00000018  00000+0  47834-3 0  9992
2 31571  51.9884 189.1399 0009139 235.8151 158.6179 12.62011494849885
GLOBALSTAR M069         
1 31573U 07020C   25298.88913251 -.00000089  00000+0  33386-4 0  9995
2 31573  52.0023 195.2787 0002559  38.8920  41.8873 12.23462435850122
GLOBALSTAR M072         
1 31574U 07020D   25298.63102411 -.00000059  00000+0  33658-3 0  9995
2 31574  51.9964   4.6965 0001174 196.1199 318.2020 11.91652501847012
GLOBALSTAR M071         
1 31576U 07020F   25298.52523418 -.00000096  00000+0 -46611-4 0  9995
2 31576  52.0055 225.6011 0001475  31.5790 139.1206 12.18260512510826
